STARLINK-37578          
1 69451U 26127J   26183.25677891  .00212835  00000+0  13560-2 0  9995
2 69451  53.1564 187.2536 0001211 106.6868 253.4285 15.75270880  3783
STARLINK-37577          
1 69452U 26127K   26183.24316236  .00117736  00000+0  76159-3 0  9996
2 69452  53.1591 187.1634 0001422 121.7631 238.3528 15.75238227  3783
STARLINK-37500          
1 69453U 26127L   26182.74498827  .00242862  00000+0  15387-2 0  9992
2 69453  53.1567 189.7477 0001909  82.6122 277.5115 15.75308584  3703
STARLINK-37575          
1 69454U 26127M   26183.30239796  .00238097  00000+0  15107-2 0  9999
2 69454  53.1591 186.8200 0001284  74.3640 285.7522 15.75289623  3796
STARLINK-37642          
1 69455U 26127N   26183.25710502  .00170440  00000+0  10926-2 0  9994
2 69455  53.1564 187.2544 0001298 117.2829 242.8323 15.75262718  3782
STARLINK-37513          
1 69456U 26127P   26183.27192294  .00150874  00000+0  75474-3 0  9998
2 69456  53.1566 186.6144 0001328  82.9103 277.2071 15.80870328  3792
STARLINK-37563          
1 69457U 26127Q   26183.30660843  .08442893  00000+0  37159-1 0  9992
2 69457  53.1588 186.8467 0012848 297.2409  62.7304 15.78985514  3793
STARLINK-37565          
1 69458U 26127R   26183.23408511  .00138293  00000+0  89164-3 0  9990
2 69458  53.1582 187.0999 0001258 110.8484 249.2671 15.75238949  3785
STARLINK-37498          
1 69459U 26127S   26183.25224134  .00199129  00000+0  12719-2 0  9996
2 69459  53.1565 187.2211 0001554  94.9995 265.1203 15.75255001  3780
STARLINK-37384          
1 69460U 26127T   26183.23862565  .00175302  00000+0  11243-2 0  9990
2 69460  53.1591 187.1319 0001126  79.8888 280.2259 15.75235968  3786
STARLINK-37707          
1 69461U 26127U   26183.29785956  .00247452  00000+0  15690-2 0  9991
2 69461  53.1584 186.7868 0001454 107.4008 252.7172 15.75277945  3799
STARLINK-37525          
1 69462U 26127V   26183.22954700  .00215207  00000+0  13718-2 0  9992
2 69462  53.1577 187.0693 0000992 112.6240 247.4886 15.75253564  3787
STARLINK-37526          
1 69463U 26127W   26183.28878540  .00258298  00000+0  16359-2 0  9997
2 69463  53.1569 186.7264 0001104  75.3823 284.7320 15.75271819  3798
STARLINK-37574          
1 69464U 26127X   26183.29332016  .00183761  00000+0  11758-2 0  9992
2 69464  53.1573 186.7552 0001052  83.4726 276.6414 15.75263415  3795
STARLINK-37535          
1 69465U 26127Y   26183.28845464  .00220241  00000+0  14015-2 0  9992
2 69465  53.1566 186.7225 0001560 109.9646 250.1543 15.75276905  3792
STARLINK-37583          
1 69466U 26127Z   26183.26154606  .00115568  00000+0  74755-3 0  9995
2 69466  53.1589 186.5422 0000461 103.8101 256.2971 15.75247056  3790
STARLINK-37546          
1 69467U 26127AA  26183.28424486  .00167652  00000+0  10759-2 0  9998
2 69467  53.1565 186.6924 0001200  84.8396 275.2762 15.75247052  3794
STARLINK-37532          
1 69468U 26127AB  26183.25003472 -.00063355  00000+0 -41207-3 0  9994
2 69468  53.1590 186.4403 0000974  91.4644 280.6171 15.75247619  5076
STARLINK-37708          
1 69469U 26127AC  26183.28391589  .00167629  00000+0  10757-2 0  9999
2 69469  53.1568 186.6894 0001091  80.8723 279.2421 15.75249041  3799
STARLINK-37686          
1 69470U 26127AD  26183.27970205  .00201499  00000+0  12855-2 0  9993
2 69470  53.1574 186.6604 0001472  99.0648 261.0539 15.75275853  3797
STARLINK-37451          
1 69471U 26127AE  26183.30250559  .00246457  00000+0  12131-2 0  9991
2 69471  53.1568 186.0766 0001609  36.8501 323.2632 15.80940789  3803
DTC TEST OBJECT A       
1 69472U 26128A   26183.32674336  .00024965  00000+0  39511-3 0  9998
2 69472  55.0001 235.0771 0010046 336.7906  23.2673 15.53300317  3588
DTC TEST OBJECT B       
1 69473U 26128B   26178.37654890  .00024134  00000+0  33565-3 0  9992
2 69473  55.0021 257.9040 0009934 325.3113  34.7274 15.56860342  2801
TJS-25                  
1 69474U 26129A   26182.89348265 -.00000357  00000+0  00000+0 0  9998
2 69474   5.9687 330.2806 0002401 290.1687 101.4051  1.00270911   215
STARLINK-37816          
1 69478U 26131A   26183.06434237  .00280491  00000+0  14178-2 0  9992
2 69478  97.2825 204.2051 0000692  78.1945 281.9401 15.80827003  4513
STARLINK-37878          
1 69479U 26131B   26183.00665404  .00545990  00000+0  26379-2 0  9993
2 69479  97.2826 204.1308 0000351 175.9683 184.1589 15.81132162  4502
STARLINK-37817          
1 69480U 26131C   26182.99967411  .00261993  00000+0  13367-2 0  9996
2 69480  97.2832 204.1395 0004736 300.7045  59.3756 15.80660555  4508
STARLINK-37727          
1 69481U 26131D   26183.25199778  .00280416  00000+0  14159-2 0  9991
2 69481  97.2851 204.4092 0001684  77.9216 282.2241 15.80850172  4545
STARLINK-37814          
1 69482U 26131E   26183.25003472 -.00014459  00000+0 -74742-4 0  9997
2 69482  97.2836 204.4094 0001379  93.8773 259.3785 15.80853288  4434
STARLINK-37869          
1 69483U 26131F   26183.06058257  .00265284  00000+0  13432-2 0  9997
2 69483  97.2818 204.2096 0000485 137.3820 222.7486 15.80829415  4515
