OBJECT_NAME,OBJECT_ID,EPOCH,MEAN_MOTION,ECCENTRICITY,INCLINATION,RA_OF_ASC_NODE,ARG_OF_PERICENTER,MEAN_ANOMALY,EPHEMERIS_TYPE,CLASSIFICATION_TYPE,NORAD_CAT_ID,ELEMENT_SET_NO,REV_AT_EPOCH,BSTAR,MEAN_MOTION_DOT,MEAN_MOTION_DDOT
STARLINK-37578,2026-127J,2026-07-02T06:09:45.697824,15.75270880,.00012113,53.1564,187.2536,106.6868,253.4285,0,U,69451,999,378,.13560423E-2,.212835E-2,0
STARLINK-37577,2026-127K,2026-07-02T05:50:09.227904,15.75238227,.00014221,53.1591,187.1634,121.7631,238.3528,0,U,69452,999,378,.76158713E-3,.117736E-2,0
STARLINK-37500,2026-127L,2026-07-01T17:52:46.986528,15.75308584,.00019092,53.1567,189.7477,82.6122,277.5115,0,U,69453,999,370,.15387157E-2,.242862E-2,0
STARLINK-37575,2026-127M,2026-07-02T07:15:27.183744,15.75289623,.00012841,53.1591,186.8200,74.3640,285.7522,0,U,69454,999,379,.15107246E-2,.238097E-2,0
STARLINK-37642,2026-127N,2026-07-02T06:10:13.873728,15.75262718,.00012986,53.1564,187.2544,117.2829,242.8323,0,U,69455,999,378,.10926269E-2,.17044E-2,0
STARLINK-37513,2026-127P,2026-07-02T06:31:34.142016,15.80870328,.00013284,53.1566,186.6144,82.9103,277.2071,0,U,69456,999,379,.75474449E-3,.150874E-2,0
STARLINK-37563,2026-127Q,2026-07-02T07:21:30.968352,15.78985514,.00128482,53.1588,186.8467,297.2409,62.7304,0,U,69457,999,379,.37159175E-1,.8442893E-1,0
STARLINK-37565,2026-127R,2026-07-02T05:37:04.953504,15.75238949,.00012588,53.1582,187.0999,110.8484,249.2671,0,U,69458,999,378,.89164162E-3,.138293E-2,0
STARLINK-37498,2026-127S,2026-07-02T06:03:13.651776,15.75255001,.00015545,53.1565,187.2211,94.9995,265.1203,0,U,69459,999,378,.12719271E-2,.199129E-2,0
STARLINK-37384,2026-127T,2026-07-02T05:43:37.256160,15.75235968,.00011263,53.1591,187.1319,79.8888,280.2259,0,U,69460,999,378,.11243471E-2,.175302E-2,0
STARLINK-37707,2026-127U,2026-07-02T07:08:55.065984,15.75277945,.00014544,53.1584,186.7868,107.4008,252.7172,0,U,69461,999,379,.15689711E-2,.247452E-2,0
STARLINK-37525,2026-127V,2026-07-02T05:30:32.860800,15.75253564,.00009923,53.1577,187.0693,112.6240,247.4886,0,U,69462,999,378,.13717568E-2,.215207E-2,0
STARLINK-37526,2026-127W,2026-07-02T06:55:51.058560,15.75271819,.00011049,53.1569,186.7264,75.3823,284.7320,0,U,69463,999,379,.16358654E-2,.258298E-2,0
STARLINK-37574,2026-127X,2026-07-02T07:02:22.861824,15.75263415,.00010523,53.1573,186.7552,83.4726,276.6414,0,U,69464,999,379,.1175807E-2,.183761E-2,0
STARLINK-37535,2026-127Y,2026-07-02T06:55:22.480896,15.75276905,.00015609,53.1566,186.7225,109.9646,250.1543,0,U,69465,999,379,.14014826E-2,.220241E-2,0
STARLINK-37583,2026-127Z,2026-07-02T06:16:37.579584,15.75247056,.00004615,53.1589,186.5422,103.8101,256.2971,0,U,69466,999,379,.74754523E-3,.115568E-2,0
STARLINK-37546,2026-127AA,2026-07-02T06:49:18.755904,15.75247052,.00012008,53.1565,186.6924,84.8396,275.2762,0,U,69467,999,379,.10759138E-2,.167652E-2,0
STARLINK-37532,2026-127AB,2026-07-02T06:00:02.999808,15.75247619,.00009741,53.1590,186.4403,91.4644,280.6171,0,U,69468,999,507,-.41206587E-3,-.63355E-3,0
STARLINK-37708,2026-127AC,2026-07-02T06:48:50.332896,15.75249041,.00010914,53.1568,186.6894,80.8723,279.2421,0,U,69469,999,379,.1075677E-2,.167629E-2,0
STARLINK-37686,2026-127AD,2026-07-02T06:42:46.257120,15.75275853,.00014721,53.1574,186.6604,99.0648,261.0539,0,U,69470,999,379,.12854936E-2,.201499E-2,0
STARLINK-37451,2026-127AE,2026-07-02T07:15:36.482976,15.80940789,.00016095,53.1568,186.0766,36.8501,323.2632,0,U,69471,999,380,.12131095E-2,.246457E-2,0
DTC TEST OBJECT A,2026-128A,2026-07-02T07:50:30.626304,15.53300317,.00100466,55.0001,235.0771,336.7906,23.2673,0,U,69472,999,358,.39511072E-3,.24965E-3,0
DTC TEST OBJECT B,2026-128B,2026-06-27T09:02:13.824960,15.56860342,.0009934,55.0021,257.9040,325.3113,34.7274,0,U,69473,999,280,.3356545E-3,.24134E-3,0
TJS-25,2026-129A,2026-07-01T21:26:36.900960,1.00270911,.00024012,5.9687,330.2806,290.1687,101.4051,0,U,69474,999,21,0,-.357E-5,0
STARLINK-37816,2026-131A,2026-07-02T01:32:39.180768,15.80827003,.00006924,97.2825,204.2051,78.1945,281.9401,0,U,69478,999,451,.14177698E-2,.280491E-2,0
STARLINK-37878,2026-131B,2026-07-02T00:09:34.909056,15.81132162,.00003516,97.2826,204.1308,175.9683,184.1589,0,U,69479,999,450,.26378851E-2,.54599E-2,0
STARLINK-37817,2026-131C,2026-07-01T23:59:31.843104,15.80660555,.00047364,97.2832,204.1395,300.7045,59.3756,0,U,69480,999,450,.13367376E-2,.261993E-2,0
STARLINK-37727,2026-131D,2026-07-02T06:02:52.608192,15.80850172,.00016848,97.2851,204.4092,77.9216,282.2241,0,U,69481,999,454,.14159359E-2,.280416E-2,0
STARLINK-37814,2026-131E,2026-07-02T06:00:02.999808,15.80853288,.0001379,97.2836,204.4094,93.8773,259.3785,0,U,69482,999,443,-.74741696E-4,-.14459E-3,0
STARLINK-37869,2026-131F,2026-07-02T01:27:14.334048,15.80829415,.00004852,97.2818,204.2096,137.3820,222.7486,0,U,69483,999,451,.13431509E-2,.265284E-2,0
